[Satellite]
VERSION=1.1
NAME=CHINASAT 5A (ZX 5A)
NICKNAME=CHINASAT 5A (ZX 5A)
TLE1=1 25354U 98033A   17185.93240366 -.00000359  00000-0  00000-0 0  9995
TLE2=2 25354   1.2807  87.1750 0000346 327.1945 329.8733  1.00277617 74457
